ORBCOMM FM103           
1 40091U 14040F   26017.28081208  .00000427  00000+0  12717-3 0  9991
2 40091  47.0055  86.4098 0002098 210.1753 149.9012 14.58601892595357
ORBCOMM FM114           
1 41179U 15081A   26017.29705748  .00000517  00000+0  14625-3 0  9998
2 41179  47.0064 355.2832 0002882 244.7218 115.3370 14.58624062535721
ORBCOMM FM119           
1 41180U 15081B   26017.08886348  .00000349  00000+0  11068-3 0  9994
2 41180  46.9999 265.6270 0001485 301.5666  58.5074 14.58570699536945
ORBCOMM FM105           
1 41181U 15081C   26017.10759152  .00000167  00000+0  91474-4 0  9998
2 41181  47.0020 291.4171 0001798 220.8807 139.1939 14.45441059531693
ORBCOMM FM110           
1 41182U 15081D   26017.28615214  .00000702  00000+0  18533-3 0  9997
2 41182  47.0036 354.8183 0001547  90.0517 270.0546 14.58671628535598
ORBCOMM FM118           
1 41183U 15081E   26016.97842693  .00000588  00000+0  16128-3 0  9996
2 41183  47.0056 356.5798 0002312  34.1013 326.0021 14.58654038535656
ORBCOMM FM112           
1 41184U 15081F   26015.95357119  .00000331  00000+0  10673-3 0  9993
2 41184  46.9988 269.9455 0001870 243.5976 116.4718 14.58653661536722
ORBCOMM FM113           
1 41185U 15081G   26016.95834825  .00000491  00000+0  14064-3 0  9994
2 41185  47.0002 265.5576 0001671 257.6104 102.4594 14.58655169536852
